[Satellite]
VERSION=1.1
NAME=OPTUS 10
NICKNAME=OPTUS 10
TLE1=1 40146U 14054A   17180.77214408 -.00000092  00000-0  00000-0 0  9991
TLE2=2 40146   0.0415  91.7988 0001532   5.1495 263.0545  1.00271021 10295
